CCSDS_OMM_VERS = 2.0
CREATION_DATE  = 
ORIGINATOR     = 

OBJECT_NAME    = STARLINK-37017
OBJECT_ID      = 2026-044H
CENTER_NAME    = EARTH
REF_FRAME      = TEME
TIME_SYSTEM    = UTC
MEAN_ELEMENT_THEORY = SGP/SGP4

EPOCH          = 2026-03-28T19:55:01.626816
MEAN_MOTION    = 15.75238549
ECCENTRICITY   = .00014727
INCLINATION    = 97.2841
RA_OF_ASC_NODE = 48.9218
ARG_OF_PERICENTER = 108.6323
MEAN_ANOMALY   = 251.5102

EPHEMERIS_TYPE = 0
CLASSIFICATION_TYPE = U
NORAD_CAT_ID   = 68108
ELEMENT_SET_NO = 999
REV_AT_EPOCH   = 449
BSTAR          = .11972023E-2
MEAN_MOTION_DOT = .182696E-2
MEAN_MOTION_DDOT = 0

CCSDS_OMM_VERS = 2.0
CREATION_DATE  = 
ORIGINATOR     = 

OBJECT_NAME    = STARLINK-36833
OBJECT_ID      = 2026-044J
CENTER_NAME    = EARTH
REF_FRAME      = TEME
TIME_SYSTEM    = UTC
MEAN_ELEMENT_THEORY = SGP/SGP4

EPOCH          = 2026-03-28T21:24:28.628064
MEAN_MOTION    = 15.75195680
ECCENTRICITY   = .00011505
INCLINATION    = 97.2847
RA_OF_ASC_NODE = 48.9893
ARG_OF_PERICENTER = 89.5657
MEAN_ANOMALY   = 270.5740

EPHEMERIS_TYPE = 0
CLASSIFICATION_TYPE = U
NORAD_CAT_ID   = 68109
ELEMENT_SET_NO = 999
REV_AT_EPOCH   = 450
BSTAR          = .52276418E-3
MEAN_MOTION_DOT = .78583E-3
MEAN_MOTION_DDOT = 0

CCSDS_OMM_VERS = 2.0
CREATION_DATE  = 
ORIGINATOR     = 

OBJECT_NAME    = STARLINK-36830
OBJECT_ID      = 2026-044K
CENTER_NAME    = EARTH
REF_FRAME      = TEME
TIME_SYSTEM    = UTC
MEAN_ELEMENT_THEORY = SGP/SGP4

EPOCH          = 2026-03-28T19:54:00.333792
MEAN_MOTION    = 15.75265076
ECCENTRICITY   = .0001673
INCLINATION    = 97.2846
RA_OF_ASC_NODE = 48.9220
ARG_OF_PERICENTER = 119.5751
MEAN_ANOMALY   = 240.5682

EPHEMERIS_TYPE = 0
CLASSIFICATION_TYPE = U
NORAD_CAT_ID   = 68110
ELEMENT_SET_NO = 999
REV_AT_EPOCH   = 449
BSTAR          = .13102162E-2
MEAN_MOTION_DOT = .200608E-2
MEAN_MOTION_DDOT = 0

CCSDS_OMM_VERS = 2.0
CREATION_DATE  = 
ORIGINATOR     = 

OBJECT_NAME    = STARLINK-36791
OBJECT_ID      = 2026-044L
CENTER_NAME    = EARTH
REF_FRAME      = TEME
TIME_SYSTEM    = UTC
MEAN_ELEMENT_THEORY = SGP/SGP4

EPOCH          = 2026-03-28T21:22:26.664096
MEAN_MOTION    = 15.75191897
ECCENTRICITY   = .00013875
INCLINATION    = 97.2846
RA_OF_ASC_NODE = 48.9920
ARG_OF_PERICENTER = 97.2515
MEAN_ANOMALY   = 262.8908

EPHEMERIS_TYPE = 0
CLASSIFICATION_TYPE = U
NORAD_CAT_ID   = 68111
ELEMENT_SET_NO = 999
REV_AT_EPOCH   = 450
BSTAR          = .48392805E-3
MEAN_MOTION_DOT = .72674E-3
MEAN_MOTION_DDOT = 0

CCSDS_OMM_VERS = 2.0
CREATION_DATE  = 
ORIGINATOR     = 

OBJECT_NAME    = STARLINK-36893
OBJECT_ID      = 2026-044M
CENTER_NAME    = EARTH
REF_FRAME      = TEME
TIME_SYSTEM    = UTC
MEAN_ELEMENT_THEORY = SGP/SGP4

EPOCH          = 2026-03-28T19:49:25.887648
MEAN_MOTION    = 15.75235164
ECCENTRICITY   = .00015439
INCLINATION    = 97.2848
RA_OF_ASC_NODE = 48.9256
ARG_OF_PERICENTER = 105.1586
MEAN_ANOMALY   = 254.9850

EPHEMERIS_TYPE = 0
CLASSIFICATION_TYPE = U
NORAD_CAT_ID   = 68112
ELEMENT_SET_NO = 999
REV_AT_EPOCH   = 449
BSTAR          = .70152965E-3
MEAN_MOTION_DOT = .106024E-2
MEAN_MOTION_DDOT = 0

CCSDS_OMM_VERS = 2.0
CREATION_DATE  = 
ORIGINATOR     = 

OBJECT_NAME    = STARLINK-36937
OBJECT_ID      = 2026-044N
CENTER_NAME    = EARTH
REF_FRAME      = TEME
TIME_SYSTEM    = UTC
MEAN_ELEMENT_THEORY = SGP/SGP4

EPOCH          = 2026-03-28T19:47:54.792672
MEAN_MOTION    = 15.75270235
ECCENTRICITY   = .00009934
INCLINATION    = 97.2846
RA_OF_ASC_NODE = 48.9274
ARG_OF_PERICENTER = 100.9212
MEAN_ANOMALY   = 259.2165

EPHEMERIS_TYPE = 0
CLASSIFICATION_TYPE = U
NORAD_CAT_ID   = 68113
ELEMENT_SET_NO = 999
REV_AT_EPOCH   = 449
BSTAR          = .19489862E-2
MEAN_MOTION_DOT = .30215E-2
MEAN_MOTION_DDOT = 0

CCSDS_OMM_VERS = 2.0
CREATION_DATE  = 
ORIGINATOR     = 

OBJECT_NAME    = STARLINK-36229
OBJECT_ID      = 2026-044P
CENTER_NAME    = EARTH
REF_FRAME      = TEME
TIME_SYSTEM    = UTC
MEAN_ELEMENT_THEORY = SGP/SGP4

EPOCH          = 2026-03-28T21:19:54.412608
MEAN_MOTION    = 15.75194798
ECCENTRICITY   = .00011206
INCLINATION    = 97.2848
RA_OF_ASC_NODE = 48.9923
ARG_OF_PERICENTER = 83.3911
MEAN_ANOMALY   = 276.7481

EPHEMERIS_TYPE = 0
CLASSIFICATION_TYPE = U
NORAD_CAT_ID   = 68114
ELEMENT_SET_NO = 999
REV_AT_EPOCH   = 450
BSTAR          = .87837494E-3
MEAN_MOTION_DOT = .132971E-2
MEAN_MOTION_DDOT = 0

CCSDS_OMM_VERS = 2.0
CREATION_DATE  = 
ORIGINATOR     = 

OBJECT_NAME    = STARLINK-36392
OBJECT_ID      = 2026-044Q
CENTER_NAME    = EARTH
REF_FRAME      = TEME
TIME_SYSTEM    = UTC
MEAN_ELEMENT_THEORY = SGP/SGP4

EPOCH          = 2026-03-28T21:17:57.195456
MEAN_MOTION    = 15.74701445
ECCENTRICITY   = .00012016
INCLINATION    = 97.2849
RA_OF_ASC_NODE = 48.9952
ARG_OF_PERICENTER = 44.9797
MEAN_ANOMALY   = 315.1565

EPHEMERIS_TYPE = 0
CLASSIFICATION_TYPE = U
NORAD_CAT_ID   = 68115
ELEMENT_SET_NO = 999
REV_AT_EPOCH   = 450
BSTAR          = -.35144589E-2
MEAN_MOTION_DOT = -.48525E-2
MEAN_MOTION_DDOT = 0

CCSDS_OMM_VERS = 2.0
CREATION_DATE  = 
ORIGINATOR     = 

OBJECT_NAME    = STARLINK-36805
OBJECT_ID      = 2026-044R
CENTER_NAME    = EARTH
REF_FRAME      = TEME
TIME_SYSTEM    = UTC
MEAN_ELEMENT_THEORY = SGP/SGP4

EPOCH          = 2026-03-28T21:17:21.792192
MEAN_MOTION    = 15.75200355
ECCENTRICITY   = .00012098
INCLINATION    = 97.2850
RA_OF_ASC_NODE = 48.9954
ARG_OF_PERICENTER = 87.6959
MEAN_ANOMALY   = 272.4445

EPHEMERIS_TYPE = 0
CLASSIFICATION_TYPE = U
NORAD_CAT_ID   = 68116
ELEMENT_SET_NO = 999
REV_AT_EPOCH   = 450
BSTAR          = .61478725E-3
MEAN_MOTION_DOT = .92611E-3
MEAN_MOTION_DDOT = 0

CCSDS_OMM_VERS = 2.0
CREATION_DATE  = 
ORIGINATOR     = 

OBJECT_NAME    = STARLINK-36844
OBJECT_ID      = 2026-044S
CENTER_NAME    = EARTH
REF_FRAME      = TEME
TIME_SYSTEM    = UTC
MEAN_ELEMENT_THEORY = SGP/SGP4

EPOCH          = 2026-03-28T19:43:50.770560
MEAN_MOTION    = 15.75236742
ECCENTRICITY   = .00014048
INCLINATION    = 97.2847
RA_OF_ASC_NODE = 48.9310
ARG_OF_PERICENTER = 90.5726
MEAN_ANOMALY   = 269.5700

EPHEMERIS_TYPE = 0
CLASSIFICATION_TYPE = U
NORAD_CAT_ID   = 68117
ELEMENT_SET_NO = 999
REV_AT_EPOCH   = 449
BSTAR          = .10392196E-2
MEAN_MOTION_DOT = .158098E-2
MEAN_MOTION_DDOT = 0

CCSDS_OMM_VERS = 2.0
CREATION_DATE  = 
ORIGINATOR     = 

OBJECT_NAME    = STARLINK-36789
OBJECT_ID      = 2026-044T
CENTER_NAME    = EARTH
REF_FRAME      = TEME
TIME_SYSTEM    = UTC
MEAN_ELEMENT_THEORY = SGP/SGP4

EPOCH          = 2026-03-28T22:00:01.999584
MEAN_MOTION    = 15.75188130
ECCENTRICITY   = .00013719
INCLINATION    = 97.2849
RA_OF_ASC_NODE = 49.0312
ARG_OF_PERICENTER = 73.3065
MEAN_ANOMALY   = 104.7401

EPHEMERIS_TYPE = 0
CLASSIFICATION_TYPE = U
NORAD_CAT_ID   = 68118
ELEMENT_SET_NO = 999
REV_AT_EPOCH   = 444
BSTAR          = -.49821215E-4
MEAN_MOTION_DOT = -.7554E-4
MEAN_MOTION_DDOT = 0

CCSDS_OMM_VERS = 2.0
CREATION_DATE  = 
ORIGINATOR     = 

OBJECT_NAME    = STARLINK-36850
OBJECT_ID      = 2026-044U
CENTER_NAME    = EARTH
REF_FRAME      = TEME
TIME_SYSTEM    = UTC
MEAN_ELEMENT_THEORY = SGP/SGP4

EPOCH          = 2026-03-28T21:14:19.045824
MEAN_MOTION    = 15.75198550
ECCENTRICITY   = .00011542
INCLINATION    = 97.2849
RA_OF_ASC_NODE = 48.9978
ARG_OF_PERICENTER = 87.6123
MEAN_ANOMALY   = 272.5274

EPHEMERIS_TYPE = 0
CLASSIFICATION_TYPE = U
NORAD_CAT_ID   = 68119
ELEMENT_SET_NO = 999
REV_AT_EPOCH   = 450
BSTAR          = .99449502E-3
MEAN_MOTION_DOT = .15091E-2
MEAN_MOTION_DDOT = 0

